[{"OBJECT_NAME":"TIANMU-1 10","OBJECT_ID":"2023-101D","EPOCH":"2026-03-09T23:06:46.939392","MEAN_MOTION":15.2921896,"ECCENTRICITY":0.00069292,"INCLINATION":97.2749,"RA_OF_ASC_NODE":122.1027,"ARG_OF_PERICENTER":133.6162,"MEAN_ANOMALY":226.5654,"EPHEMERIS_TYPE":0,"CLASSIFICATION_TYPE":"U","NORAD_CAT_ID":57402,"ELEMENT_SET_NO":999,"REV_AT_EPOCH":14647,"BSTAR":0.00032238884,"MEAN_MOTION_DOT":9.075e-5,"MEAN_MOTION_DDOT":0},{"OBJECT_NAME":"STARLINK-35990","OBJECT_ID":"2025-278B","EPOCH":"2026-03-09T12:08:00.109248","MEAN_MOTION":15.27586169,"ECCENTRICITY":9.933e-5,"INCLINATION":42.9974,"RA_OF_ASC_NODE":115.1677,"ARG_OF_PERICENTER":201.3802,"MEAN_ANOMALY":158.7008,"EPHEMERIS_TYPE":0,"CLASSIFICATION_TYPE":"U","NORAD_CAT_ID":66792,"ELEMENT_SET_NO":999,"REV_AT_EPOCH":1518,"BSTAR":0.00085070919,"MEAN_MOTION_DOT":0.00023226,"MEAN_MOTION_DDOT":0}]
